[{"OBJECT_NAME":"STARLINK-33941","OBJECT_ID":"2025-089Q","EPOCH":"2026-03-09T22:29:44.540448","MEAN_MOTION":15.27595221,"ECCENTRICITY":0.00027133,"INCLINATION":43.0019,"RA_OF_ASC_NODE":43.9862,"ARG_OF_PERICENTER":287.5994,"MEAN_ANOMALY":72.4561,"EPHEMERIS_TYPE":0,"CLASSIFICATION_TYPE":"U","NORAD_CAT_ID":63765,"ELEMENT_SET_NO":999,"REV_AT_EPOCH":4898,"BSTAR":0.0012558018,"MEAN_MOTION_DOT":0.00034474,"MEAN_MOTION_DDOT":0},{"OBJECT_NAME":"USA 23","OBJECT_ID":"1987-043E","EPOCH":"2026-03-09T21:08:44.965536","MEAN_MOTION":13.85441647,"ECCENTRICITY":0.07926517,"INCLINATION":63.2919,"RA_OF_ASC_NODE":275.6302,"ARG_OF_PERICENTER":103.3692,"MEAN_ANOMALY":265.6899,"EPHEMERIS_TYPE":0,"CLASSIFICATION_TYPE":"U","NORAD_CAT_ID":18009,"ELEMENT_SET_NO":999,"REV_AT_EPOCH":33172,"BSTAR":0.00082001328,"MEAN_MOTION_DOT":0.00014079,"MEAN_MOTION_DDOT":0}]
